start=new Date('2022-11-22T00:00:00.000Z').valueOf();
sats=[{"EPHEMERIS_TYPE":"0","MEAN_MOTION":"15.06242786","OBJECT_TYPE":"PAYLOAD","MEAN_ELEMENT_THEORY":"SGP4","REV_AT_EPOCH":"8503","DECAY_DATE":null,"SITE":"AFETR","TLE_LINE2":"2 48473  53.0538 196.0877 0000927  52.8001 307.3073 15.06242786 85034","TIME_SYSTEM":"UTC","CENTER_NAME":"EARTH","GP_ID":"218432393","REF_FRAME":"TEME","FILE":"3666658","COUNTRY_CODE":"US","EPOCH":"2022-11-21T19:08:25.617408","MEAN_ANOMALY":"307.3073","OBJECT_ID":"2021-040AX","TLE_LINE1":"1 48473U 21040AX  22325.79751872  .00033728  00000-0  22820-2 0  9992","APOAPSIS":"548.337","PERIOD":"95.602","RCS_SIZE":"LARGE","ECCENTRICITY":"0.00009270","PERIAPSIS":"547.053","RA_OF_ASC_NODE":"196.0877","NORAD_CAT_ID":"48473","BSTAR":"0.00228200000000","ELEMENT_SET_NO":"999","INCLINATION":"53.0538","MEAN_MOTION_DDOT":"0.0000000000000","ARG_OF_PERICENTER":"52.8001","CLASSIFICATION_TYPE":"U","OBJECT_NAME":"STARLINK-2658","MEAN_MOTION_DOT":"0.00033728","SEMIMAJOR_AXIS":"6925.830","LAUNCH_DATE":"2021-05-09"},{"OBJECT_NAME":"STARLINK-2697","SEMIMAJOR_AXIS":"6925.360","MEAN_MOTION_DOT":"0.00000232","LAUNCH_DATE":"2021-05-09","INCLINATION":"53.0551","MEAN_MOTION_DDOT":"0.0000000000000","ARG_OF_PERICENTER":"48.2676","CLASSIFICATION_TYPE":"U","NORAD_CAT_ID":"48474","BSTAR":"0.00003447600000","ELEMENT_SET_NO":"999","RA_OF_ASC_NODE":"195.9623","OBJECT_ID":"2021-040AY","TLE_LINE1":"1 48474U 21040AY  22325.83063942  .00000232  00000-0  34476-4 0  9998","APOAPSIS":"548.567","ECCENTRICITY":"0.00019380","RCS_SIZE":"LARGE","PERIOD":"95.592","PERIAPSIS":"545.883","FILE":"3666658","COUNTRY_CODE":"US","EPOCH":"2022-11-21T19:56:07.245888","MEAN_ANOMALY":"311.8479","TIME_SYSTEM":"UTC","CENTER_NAME":"EARTH","REF_FRAME":"TEME","GP_ID":"218433141","TLE_LINE2":"2 48474  53.0551 195.9623 0001938  48.2676 311.8479 15.06396375 85031","REV_AT_EPOCH":"8503","DECAY_DATE":null,"SITE":"AFETR","OBJECT_TYPE":"PAYLOAD","MEAN_ELEMENT_THEORY":"SGP4","MEAN_MOTION":"15.06396375","EPHEMERIS_TYPE":"0"},{"MEAN_MOTION_DOT":"-0.00002506","SEMIMAJOR_AXIS":"6925.337","LAUNCH_DATE":"2021-05-09","OBJECT_NAME":"STARLINK-2619","MEAN_MOTION_DDOT":"0.0000000000000","ARG_OF_PERICENTER":"59.1808","CLASSIFICATION_TYPE":"U","INCLINATION":"53.0540","ELEMENT_SET_NO":"999","NORAD_CAT_ID":"48475","BSTAR":"-0.00014932000000","RA_OF_ASC_NODE":"196.0971","PERIOD":"95.592","RCS_SIZE":"LARGE","ECCENTRICITY":"0.00022920","PERIAPSIS":"545.615","OBJECT_ID":"2021-040AZ","APOAPSIS":"548.789","TLE_LINE1":"1 48475U 21040AZ  22325.80116000 -.00002506  00000-0 -14932-3 0  9992","COUNTRY_CODE":"US","EPOCH":"2022-11-21T19:13:40.224000","MEAN_ANOMALY":"300.9407","FILE":"3666658","GP_ID":"218431892","REF_FRAME":"TEME","TIME_SYSTEM":"UTC","CENTER_NAME":"EARTH","TLE_LINE2":"2 48475  53.0540 196.0971 0002292  59.1808 300.9407 15.06403725 85038","DECAY_DATE":null,"SITE":"AFETR","REV_AT_EPOCH":"8503","OBJECT_TYPE":"PAYLOAD","MEAN_ELEMENT_THEORY":"SGP4","MEAN_MOTION":"15.06403725","EPHEMERIS_TYPE":"0"},{"OBJECT_TYPE":"PAYLOAD","MEAN_ELEMENT_THEORY":"SGP4","TLE_LINE2":"2 48476  53.0545 195.9902 0002030  64.9727 295.1472 15.06351342 85034","DECAY_DATE":null,"SITE":"AFETR","REV_AT_EPOCH":"8503","MEAN_MOTION":"15.06351342","EPHEMERIS_TYPE":"0","ELEMENT_SET_NO":"999","NORAD_CAT_ID":"48476","BSTAR":"0.00065285000000","RA_OF_ASC_NODE":"195.9902","SEMIMAJOR_AXIS":"6925.498","MEAN_MOTION_DOT":"0.00009443","LAUNCH_DATE":"2021-05-09","OBJECT_NAME":"STARLINK-2723","MEAN_MOTION_DDOT":"0.0000000000000","ARG_OF_PERICENTER":"64.9727","CLASSIFICATION_TYPE":"U","INCLINATION":"53.0545","EPOCH":"2022-11-21T19:45:31.250304","COUNTRY_CODE":"US","MEAN_ANOMALY":"295.1472","FILE":"3666658","REF_FRAME":"TEME","GP_ID":"218431642","CENTER_NAME":"EARTH","TIME_SYSTEM":"UTC","ECCENTRICITY":"0.00020300","RCS_SIZE":"LARGE","PERIOD":"95.595","PERIAPSIS":"545.957","OBJECT_ID":"2021-040BA","TLE_LINE1":"1 48476U 21040BA  22325.82327836  .00009443  00000-0  65285-3 0  9998","APOAPSIS":"548.769"},{"EPHEMERIS_TYPE":"0","MEAN_MOTION":"15.06399421","MEAN_ELEMENT_THEORY":"SGP4","OBJECT_TYPE":"PAYLOAD","SITE":"AFETR","DECAY_DATE":null,"REV_AT_EPOCH":"8503","TLE_LINE2":"2 48478  53.0533 196.0547 0002762  36.9542 323.1637 15.06399421 85031","GP_ID":"218432894","REF_FRAME":"TEME","CENTER_NAME":"EARTH","TIME_SYSTEM":"UTC","COUNTRY_CODE":"US","MEAN_ANOMALY":"323.1637","EPOCH":"2022-11-21T19:24:16.576416","FILE":"3666658","PERIAPSIS":"545.303","RCS_SIZE":"LARGE","PERIOD":"95.592","ECCENTRICITY":"0.00027620","TLE_LINE1":"1 48478U 02032DG  22325.80852519  .00000402  00000-0  45924-4 0  9994","APOAPSIS":"549.128","OBJECT_ID":"2021-040BC","RA_OF_ASC_NODE":"196.0547","ELEMENT_SET_NO":"999","BSTAR":"0.00004592400000","NORAD_CAT_ID":"48478","CLASSIFICATION_TYPE":"U","MEAN_MOTION_DDOT":"0.0000000000000","ARG_OF_PERICENTER":"36.9542","INCLINATION":"53.0533","LAUNCH_DATE":"2021-05-09","MEAN_MOTION_DOT":"0.00000402","SEMIMAJOR_AXIS":"6925.350","OBJECT_NAME":"STARLINK-2728"},{"MEAN_MOTION":"15.06311242","EPHEMERIS_TYPE":"0","TLE_LINE2":"2 48479  53.0531 196.0761 0002342  56.8076 303.3137 15.06311242 85035","REV_AT_EPOCH":"8503","DECAY_DATE":null,"SITE":"AFETR","OBJECT_TYPE":"PAYLOAD","MEAN_ELEMENT_THEORY":"SGP4","OBJECT_ID":"2021-040BD","TLE_LINE1":"1 48479U 21040BD  22325.80484408  .00017819  00000-0  12150-2 0  9996","APOAPSIS":"549.108","PERIOD":"95.598","RCS_SIZE":"LARGE","ECCENTRICITY":"0.00023420","PERIAPSIS":"545.864","FILE":"3666658","MEAN_ANOMALY":"303.3137","COUNTRY_CODE":"US","EPOCH":"2022-11-21T19:18:58.528512","TIME_SYSTEM":"UTC","CENTER_NAME":"EARTH","GP_ID":"218432641","REF_FRAME":"TEME","OBJECT_NAME":"STARLINK-2755","MEAN_MOTION_DOT":"0.00017819","SEMIMAJOR_AXIS":"6925.621","LAUNCH_DATE":"2021-05-09","INCLINATION":"53.0531","MEAN_MOTION_DDOT":"0.0000000000000","ARG_OF_PERICENTER":"56.8076","CLASSIFICATION_TYPE":"U","NORAD_CAT_ID":"48479","BSTAR":"0.00121500000000","ELEMENT_SET_NO":"999","RA_OF_ASC_NODE":"196.0761"},{"MEAN_MOTION":"15.06393205","EPHEMERIS_TYPE":"0","OBJECT_TYPE":"PAYLOAD","MEAN_ELEMENT_THEORY":"SGP4","TLE_LINE2":"2 48480  53.0548 206.0130 0002123  45.2559 314.8602 15.06393205 84898","DECAY_DATE":null,"SITE":"AFETR","REV_AT_EPOCH":"8489","MEAN_ANOMALY":"314.8602","COUNTRY_CODE":"US","EPOCH":"2022-11-21T19:37:30.709056","FILE":"3666658","REF_FRAME":"TEME","GP_ID":"218431392","CENTER_NAME":"EARTH","TIME_SYSTEM":"UTC","ECCENTRICITY":"0.00021230","RCS_SIZE":"LARGE","PERIOD":"95.593","PERIAPSIS":"545.764","OBJECT_ID":"2021-040BE","TLE_LINE1":"1 48480U 21040BE  22325.81771654 -.00000761  00000-0 -32155-4 0  9990","APOAPSIS":"548.705","ELEMENT_SET_NO":"999","NORAD_CAT_ID":"48480","BSTAR":"-0.00003215500000","RA_OF_ASC_NODE":"206.0130","SEMIMAJOR_AXIS":"6925.369","MEAN_MOTION_DOT":"-0.00000761","LAUNCH_DATE":"2021-05-09","OBJECT_NAME":"STARLINK-2690","ARG_OF_PERICENTER":"45.2559","MEAN_MOTION_DDOT":"0.0000000000000","CLASSIFICATION_TYPE":"U","INCLINATION":"53.0548"},{"OBJECT_ID":"2021-040BF","APOAPSIS":"548.346","TLE_LINE1":"1 48481U 21040BF  22325.79289280 -.00000101  00000-0  12148-4 0  9994","PERIOD":"95.593","RCS_SIZE":"LARGE","ECCENTRICITY":"0.00016100","PERIAPSIS":"546.116","CENTER_NAME":"EARTH","TIME_SYSTEM":"UTC","GP_ID":"218432143","REF_FRAME":"TEME","FILE":"3666658","MEAN_ANOMALY":"306.7201","COUNTRY_CODE":"US","EPOCH":"2022-11-21T19:01:45.937920","INCLINATION":"53.0535","MEAN_MOTION_DDOT":"0.0000000000000","ARG_OF_PERICENTER":"53.3935","CLASSIFICATION_TYPE":"U","OBJECT_NAME":"STARLINK-2706","SEMIMAJOR_AXIS":"6925.366","MEAN_MOTION_DOT":"-0.00000101","LAUNCH_DATE":"2021-05-09","RA_OF_ASC_NODE":"206.4115","NORAD_CAT_ID":"48481","BSTAR":"0.00001214800000","ELEMENT_SET_NO":"999","EPHEMERIS_TYPE":"0","MEAN_MOTION":"15.06394177","REV_AT_EPOCH":"8488","DECAY_DATE":null,"SITE":"AFETR","TLE_LINE2":"2 48481  53.0535 206.4115 0001610  53.3935 306.7201 15.06394177 84883","OBJECT_TYPE":"PAYLOAD","MEAN_ELEMENT_THEORY":"SGP4"},{"OBJECT_TYPE":"PAYLOAD","MEAN_ELEMENT_THEORY":"SGP4","DECAY_DATE":null,"SITE":"AFETR","REV_AT_EPOCH":"8489","TLE_LINE2":"2 48482  53.0535 205.9839 0001189  66.7616 293.3498 15.06405194 84898","EPHEMERIS_TYPE":"0","MEAN_MOTION":"15.06405194","RA_OF_ASC_NODE":"205.9839","ELEMENT_SET_NO":"999","NORAD_CAT_ID":"48482","BSTAR":"-0.00011119000000","MEAN_MOTION_DDOT":"0.0000000000000","ARG_OF_PERICENTER":"66.7616","CLASSIFICATION_TYPE":"U","INCLINATION":"53.0535","MEAN_MOTION_DOT":"-0.00001937","SEMIMAJOR_AXIS":"6925.333","LAUNCH_DATE":"2021-05-09","OBJECT_NAME":"STARLINK-2525","GP_ID":"218432394","REF_FRAME":"TEME","TIME_SYSTEM":"UTC","CENTER_NAME":"EARTH","COUNTRY_CODE":"US","MEAN_ANOMALY":"293.3498","EPOCH":"2022-11-21T19:49:28.844256","FILE":"3666658","RCS_SIZE":"LARGE","PERIOD":"95.592","ECCENTRICITY":"0.00011890","PERIAPSIS":"546.374","OBJECT_ID":"2021-040BG","APOAPSIS":"548.021","TLE_LINE1":"1 48482U 21040BG  22325.82602829 -.00001937  00000-0 -11119-3 0  9992"},{"MEAN_MOTION":"15.06390618","EPHEMERIS_TYPE":"0","TLE_LINE2":"2 48483  53.0524 205.9976 0001658  66.3844 293.7319 15.06390618 84899","SITE":"AFETR","DECAY_DATE":null,"REV_AT_EPOCH":"8489","MEAN_ELEMENT_THEORY":"SGP4","OBJECT_TYPE":"PAYLOAD","PERIAPSIS":"546.094","PERIOD":"95.593","RCS_SIZE":"LARGE","ECCENTRICITY":"0.00016580","TLE_LINE1":"1 48483U 21040BH  22325.82235002  .00000248  00000-0  35572-4 0  9990","APOAPSIS":"548.391","OBJECT_ID":"2021-040BH","COUNTRY_CODE":"US","EPOCH":"2022-11-21T19:44:11.041728","MEAN_ANOMALY":"293.7319","FILE":"3666658","REF_FRAME":"TEME","GP_ID":"218433142","TIME_SYSTEM":"UTC","CENTER_NAME":"EARTH","LAUNCH_DATE":"2021-05-09","SEMIMAJOR_AXIS":"6925.377","MEAN_MOTION_DOT":"0.00000248","OBJECT_NAME":"STARLINK-2531","CLASSIFICATION_TYPE":"U","ARG_OF_PERICENTER":"66.3844","MEAN_MOTION_DDOT":"0.0000000000000","INCLINATION":"53.0524","ELEMENT_SET_NO":"999","BSTAR":"0.00003557200000","NORAD_CAT_ID":"48483","RA_OF_ASC_NODE":"205.9976"}];
